start=new Date('2021-09-05T00:00:00.000Z').valueOf();
sats=[{"MEAN_MOTION_DDOT":"0.0000000000000","GP_ID":"184106133","TLE_LINE1":"1 47133U 20088M   21247.69043577 -.00000459  00000-0 -11923-4 0  9993","ELEMENT_SET_NO":"999","OBJECT_ID":"2020-088M","EPOCH":"2021-09-04T16:34:13.650528","MEAN_MOTION":"15.06398283","FILE":"3108751","ECCENTRICITY":"0.00023720","MEAN_MOTION_DOT":"-0.00000459","PERIAPSIS":"545.576","LAUNCH_DATE":"2020-11-25","RA_OF_ASC_NODE":"125.4285","TLE_LINE2":"2 47133  53.0555 125.4285 0002372  95.5099 264.6160 15.06398283 43738","REV_AT_EPOCH":"4373","MEAN_ELEMENT_THEORY":"SGP4","BSTAR":"-0.00001192300000","TIME_SYSTEM":"UTC","REF_FRAME":"TEME","CENTER_NAME":"EARTH","ARG_OF_PERICENTER":"95.5099","OBJECT_TYPE":"PAYLOAD","SITE":"AFETR","INCLINATION":"53.0555","RCS_SIZE":"LARGE","DECAY_DATE":null,"CLASSIFICATION_TYPE":"U","PERIOD":"95.592","APOAPSIS":"548.862","MEAN_ANOMALY":"264.6160","SEMIMAJOR_AXIS":"6925.354","OBJECT_NAME":"STARLINK-1843","EPHEMERIS_TYPE":"0","COUNTRY_CODE":"US","NORAD_CAT_ID":"47133"},{"ECCENTRICITY":"0.00043750","MEAN_MOTION_DOT":"0.00001126","PERIAPSIS":"544.204","LAUNCH_DATE":"2020-11-25","REV_AT_EPOCH":"4360","MEAN_ELEMENT_THEORY":"SGP4","TLE_LINE2":"2 47134  53.0559 135.1147 0004375 319.0867  40.9794 15.06393340 43603","RA_OF_ASC_NODE":"135.1147","BSTAR":"0.00009456300000","TIME_SYSTEM":"UTC","REF_FRAME":"TEME","ARG_OF_PERICENTER":"319.0867","CENTER_NAME":"EARTH","MEAN_MOTION_DDOT":"0.0000000000000","GP_ID":"184104382","TLE_LINE1":"1 47134U 20088N   21247.73004875  .00001126  00000-0  94563-4 0  9998","ELEMENT_SET_NO":"999","EPOCH":"2021-09-04T17:31:16.212000","MEAN_MOTION":"15.06393340","OBJECT_ID":"2020-088N","FILE":"3108751","MEAN_ANOMALY":"40.9794","OBJECT_NAME":"STARLINK-1844","SEMIMAJOR_AXIS":"6925.369","COUNTRY_CODE":"US","EPHEMERIS_TYPE":"0","NORAD_CAT_ID":"47134","OBJECT_TYPE":"PAYLOAD","INCLINATION":"53.0559","SITE":"AFETR","CLASSIFICATION_TYPE":"U","RCS_SIZE":"LARGE","DECAY_DATE":null,"APOAPSIS":"550.264","PERIOD":"95.593"},{"OBJECT_NAME":"STARLINK-1845","SEMIMAJOR_AXIS":"6925.357","COUNTRY_CODE":"US","EPHEMERIS_TYPE":"0","MEAN_ANOMALY":"284.2677","NORAD_CAT_ID":"47135","INCLINATION":"53.0560","SITE":"AFETR","OBJECT_TYPE":"PAYLOAD","CLASSIFICATION_TYPE":"U","RCS_SIZE":"LARGE","DECAY_DATE":null,"APOAPSIS":"548.500","PERIOD":"95.592","MEAN_ELEMENT_THEORY":"SGP4","REV_AT_EPOCH":"4363","TLE_LINE2":"2 47135  53.0560 128.2861 0001845  75.8517 284.2677 15.06397254 43634","RA_OF_ASC_NODE":"128.2861","BSTAR":"-0.00003128900000","ECCENTRICITY":"0.00018450","MEAN_MOTION_DOT":"-0.00000748","LAUNCH_DATE":"2020-11-25","PERIAPSIS":"545.944","REF_FRAME":"TEME","ARG_OF_PERICENTER":"75.8517","CENTER_NAME":"EARTH","TIME_SYSTEM":"UTC","ELEMENT_SET_NO":"999","MEAN_MOTION_DDOT":"0.0000000000000","GP_ID":"184077429","TLE_LINE1":"1 47135U 20088P   21247.01959450 -.00000748  00000-0 -31289-4 0  9995","MEAN_MOTION":"15.06397254","EPOCH":"2021-09-04T00:28:12.964800","OBJECT_ID":"2020-088P","FILE":"3108585"},{"LAUNCH_DATE":"2020-11-25","PERIAPSIS":"545.919","ECCENTRICITY":"0.00018810","MEAN_MOTION_DOT":"-0.00000169","BSTAR":"0.00000753680000","TLE_LINE2":"2 47136  53.0530 135.3276 0001881  72.2031 287.9163 15.06397438 43592","RA_OF_ASC_NODE":"135.3276","REV_AT_EPOCH":"4359","MEAN_ELEMENT_THEORY":"SGP4","TIME_SYSTEM":"UTC","CENTER_NAME":"EARTH","ARG_OF_PERICENTER":"72.2031","REF_FRAME":"TEME","TLE_LINE1":"1 47136U 20088Q   21247.68214119 -.00000169  00000-0  75368-5 0  9998","MEAN_MOTION_DDOT":"0.0000000000000","GP_ID":"184105883","ELEMENT_SET_NO":"999","FILE":"3108751","OBJECT_ID":"2020-088Q","EPOCH":"2021-09-04T16:22:16.998816","MEAN_MOTION":"15.06397438","MEAN_ANOMALY":"287.9163","COUNTRY_CODE":"US","EPHEMERIS_TYPE":"0","SEMIMAJOR_AXIS":"6925.356","OBJECT_NAME":"STARLINK-1846","NORAD_CAT_ID":"47136","OBJECT_TYPE":"PAYLOAD","SITE":"AFETR","INCLINATION":"53.0530","PERIOD":"95.592","APOAPSIS":"548.524","DECAY_DATE":null,"RCS_SIZE":"LARGE","CLASSIFICATION_TYPE":"U"},{"NORAD_CAT_ID":"47137","OBJECT_NAME":"STARLINK-1849","SEMIMAJOR_AXIS":"6925.332","EPHEMERIS_TYPE":"0","COUNTRY_CODE":"US","MEAN_ANOMALY":"284.7992","CLASSIFICATION_TYPE":"U","RCS_SIZE":"LARGE","DECAY_DATE":null,"APOAPSIS":"548.515","PERIOD":"95.592","INCLINATION":"53.0561","SITE":"AFETR","OBJECT_TYPE":"PAYLOAD","REF_FRAME":"TEME","ARG_OF_PERICENTER":"75.3208","CENTER_NAME":"EARTH","TIME_SYSTEM":"UTC","MEAN_ELEMENT_THEORY":"SGP4","REV_AT_EPOCH":"4373","RA_OF_ASC_NODE":"125.4031","TLE_LINE2":"2 47137  53.0561 125.4031 0001903  75.3208 284.7992 15.06405353 43738","BSTAR":"0.00010322000000","MEAN_MOTION_DOT":"0.00001256","ECCENTRICITY":"0.00019030","PERIAPSIS":"545.879","LAUNCH_DATE":"2020-11-25","MEAN_MOTION":"15.06405353","EPOCH":"2021-09-04T15:57:05.161248","OBJECT_ID":"2020-088R","FILE":"3108751","ELEMENT_SET_NO":"999","MEAN_MOTION_DDOT":"0.0000000000000","GP_ID":"184105634","TLE_LINE1":"1 47137U 20088R   21247.66464307  .00001256  00000-0  10322-3 0  9997"},{"NORAD_CAT_ID":"47138","SEMIMAJOR_AXIS":"6925.325","OBJECT_NAME":"STARLINK-1850","COUNTRY_CODE":"US","EPHEMERIS_TYPE":"0","MEAN_ANOMALY":"286.6309","RCS_SIZE":"LARGE","DECAY_DATE":null,"CLASSIFICATION_TYPE":"U","PERIOD":"95.592","APOAPSIS":"548.493","SITE":"AFETR","INCLINATION":"53.0535","OBJECT_TYPE":"PAYLOAD","REF_FRAME":"TEME","CENTER_NAME":"EARTH","ARG_OF_PERICENTER":"73.4887","TIME_SYSTEM":"UTC","RA_OF_ASC_NODE":"132.6262","TLE_LINE2":"2 47138  53.0535 132.6262 0001882  73.4887 286.6309 15.06407687 43593","REV_AT_EPOCH":"4359","MEAN_ELEMENT_THEORY":"SGP4","BSTAR":"0.00012205000000","MEAN_MOTION_DOT":"0.00001537","ECCENTRICITY":"0.00018820","PERIAPSIS":"545.887","LAUNCH_DATE":"2020-11-25","OBJECT_ID":"2020-088S","EPOCH":"2021-09-04T04:01:08.841216","MEAN_MOTION":"15.06407687","FILE":"3108585","ELEMENT_SET_NO":"999","MEAN_MOTION_DDOT":"0.0000000000000","GP_ID":"184078680","TLE_LINE1":"1 47138U 20088S   21247.16746344  .00001537  00000-0  12205-3 0  9991"},{"OBJECT_TYPE":"PAYLOAD","SITE":"AFETR","INCLINATION":"53.0548","PERIOD":"95.591","APOAPSIS":"548.705","RCS_SIZE":"LARGE","DECAY_DATE":null,"CLASSIFICATION_TYPE":"U","MEAN_ANOMALY":"279.1857","COUNTRY_CODE":"US","EPHEMERIS_TYPE":"0","SEMIMAJOR_AXIS":"6925.315","OBJECT_NAME":"STARLINK-1852","NORAD_CAT_ID":"47139","TLE_LINE1":"1 47139U 20088T   21247.69363825  .00002001  00000-0  15315-3 0  9991","MEAN_MOTION_DDOT":"0.0000000000000","GP_ID":"184105132","ELEMENT_SET_NO":"999","FILE":"3108751","OBJECT_ID":"2020-088T","MEAN_MOTION":"15.06410965","EPOCH":"2021-09-04T16:38:50.344800","LAUNCH_DATE":"2020-11-25","PERIAPSIS":"545.655","MEAN_MOTION_DOT":"0.00002001","ECCENTRICITY":"0.00022020","BSTAR":"0.00015315000000","TLE_LINE2":"2 47139  53.0548 140.2687 0002202  80.9381 279.1857 15.06410965 43524","RA_OF_ASC_NODE":"140.2687","REV_AT_EPOCH":"4352","MEAN_ELEMENT_THEORY":"SGP4","TIME_SYSTEM":"UTC","CENTER_NAME":"EARTH","ARG_OF_PERICENTER":"80.9381","REF_FRAME":"TEME"},{"BSTAR":"0.00086037000000","TLE_LINE2":"2 47140  53.0528 121.5836 0001352  59.4102 300.7049 15.71547960 43790","RA_OF_ASC_NODE":"121.5836","REV_AT_EPOCH":"4379","MEAN_ELEMENT_THEORY":"SGP4","PERIAPSIS":"353.564","LAUNCH_DATE":"2020-11-25","MEAN_MOTION_DOT":"0.00113514","ECCENTRICITY":"0.00013520","CENTER_NAME":"EARTH","ARG_OF_PERICENTER":"59.4102","REF_FRAME":"TEME","TIME_SYSTEM":"UTC","ELEMENT_SET_NO":"999","TLE_LINE1":"1 47140U 20088U   21247.70368904  .00113514  00000-0  86037-3 0  9999","MEAN_MOTION_DDOT":"0.0000000000000","GP_ID":"184105384","FILE":"3108751","OBJECT_ID":"2020-088U","EPOCH":"2021-09-04T16:53:18.733056","MEAN_MOTION":"15.71547960","COUNTRY_CODE":"US","EPHEMERIS_TYPE":"0","SEMIMAJOR_AXIS":"6732.609","OBJECT_NAME":"STARLINK-1853","MEAN_ANOMALY":"300.7049","NORAD_CAT_ID":"47140","SITE":"AFETR","INCLINATION":"53.0528","OBJECT_TYPE":"PAYLOAD","PERIOD":"91.629","APOAPSIS":"355.385","RCS_SIZE":"LARGE","DECAY_DATE":null,"CLASSIFICATION_TYPE":"U"},{"NORAD_CAT_ID":"47141","SEMIMAJOR_AXIS":"6925.362","OBJECT_NAME":"STARLINK-1854","EPHEMERIS_TYPE":"0","COUNTRY_CODE":"US","MEAN_ANOMALY":"265.1647","DECAY_DATE":null,"RCS_SIZE":"LARGE","CLASSIFICATION_TYPE":"U","PERIOD":"95.592","APOAPSIS":"548.431","SITE":"AFETR","INCLINATION":"53.0542","OBJECT_TYPE":"PAYLOAD","REF_FRAME":"TEME","CENTER_NAME":"EARTH","ARG_OF_PERICENTER":"94.9540","TIME_SYSTEM":"UTC","RA_OF_ASC_NODE":"127.5379","TLE_LINE2":"2 47141  53.0542 127.5379 0001739  94.9540 265.1647 15.06395668 43662","REV_AT_EPOCH":"4366","MEAN_ELEMENT_THEORY":"SGP4","BSTAR":"0.00000151310000","MEAN_MOTION_DOT":"-0.00000259","ECCENTRICITY":"0.00017390","LAUNCH_DATE":"2020-11-25","PERIAPSIS":"546.023","OBJECT_ID":"2020-088V","EPOCH":"2021-09-04T04:11:08.719008","MEAN_MOTION":"15.06395668","FILE":"3108585","ELEMENT_SET_NO":"999","GP_ID":"184078932","MEAN_MOTION_DDOT":"0.0000000000000","TLE_LINE1":"1 47141U 20088V   21247.17440647 -.00000259  00000-0  15131-5 0  9997"},{"TLE_LINE1":"1 47142U 20088W   21247.93086538  .01045644  53937-3  21668-2 0  9993","GP_ID":"184104383","MEAN_MOTION_DDOT":"0.0005393700000","ELEMENT_SET_NO":"999","FILE":"3108751","OBJECT_ID":"2020-088W","EPOCH":"2021-09-04T22:20:26.768832","MEAN_MOTION":"15.98636370","PERIAPSIS":"274.199","LAUNCH_DATE":"2020-11-25","ECCENTRICITY":"0.00060150","MEAN_MOTION_DOT":"0.01045644","BSTAR":"0.00216680000000","TLE_LINE2":"2 47142  53.0528 101.2781 0006015 304.1147  55.9350 15.98636370 44389","RA_OF_ASC_NODE":"101.2781","REV_AT_EPOCH":"4438","MEAN_ELEMENT_THEORY":"SGP4","TIME_SYSTEM":"UTC","CENTER_NAME":"EARTH","ARG_OF_PERICENTER":"304.1147","REF_FRAME":"TEME","OBJECT_TYPE":"PAYLOAD","SITE":"AFETR","INCLINATION":"53.0528","PERIOD":"90.077","APOAPSIS":"282.207","DECAY_DATE":null,"RCS_SIZE":"LARGE","CLASSIFICATION_TYPE":"U","MEAN_ANOMALY":"55.9350","COUNTRY_CODE":"US","EPHEMERIS_TYPE":"0","SEMIMAJOR_AXIS":"6656.338","OBJECT_NAME":"STARLINK-1855","NORAD_CAT_ID":"47142"}];
